{"type": "FeatureCollection", "features": [ {"type": "Feature", "properties": {"norad_id": 28659, "name": "DIRECTV 8", "group": "intelsat", "lat": -0.022239428633770097, "lon": 176.8826514634766, "alt_km": 35782.796949638745, "timestamp": "2025-12-05T14:45:14.980958+00:00", "meta": {"OBJECT_NAME": "DIRECTV 8", "OBJECT_ID": "2005-019A", "EPOCH": "2025-12-04T09:44:09.105216", "MEAN_MOTION": 1.00271046, "ECCENTRICITY": 0.0003266, "INCLINATION": 0.0176, "RA_OF_ASC_NODE": 322.8972, "ARG_OF_PERICENTER": 289.5965, "MEAN_ANOMALY": 207.9778, "EPHEMERIS_TYPE": 0, "CLASSIFICATION_TYPE": "U", "NORAD_CAT_ID": 28659, "ELEMENT_SET_NO": 999, "REV_AT_EPOCH": 7512, "BSTAR": 0, "MEAN_MOTION_DOT": 1.6e-07, "MEAN_MOTION_DDOT": 0}, "tle": {"line1": "1 28659U 05019A   25338.40566094  .00000016  00000+0  00000+0 0  9995", "line2": "2 28659   0.0176 322.8972 0003266 289.5965 207.9778  1.00271046 75126"}}, "geometry": {"type": "Point", "coordinates": [176.8826514634766, -0.022239428633770097]}}, {"type": "Feature", "properties": {"norad_id": 28702, "name": "GALAXY 28 (G-28)", "group": "intelsat", "lat": 2.2469481889028216, "lon": -152.7099518601676, "alt_km": 35777.951520879455, "timestamp": "2025-12-05T14:45:14.980970+00:00", "meta": {"OBJECT_NAME": "GALAXY 28 (G-28)", "OBJECT_ID": "2005-022A", "EPOCH": "2025-12-04T13:18:14.537952", "MEAN_MOTION": 1.00272119, "ECCENTRICITY": 0.0002636, "INCLINATION": 2.7977, "RA_OF_ASC_NODE": 81.3766, "ARG_OF_PERICENTER": 171.5466, "MEAN_ANOMALY": 291.5686, "EPHEMERIS_TYPE": 0, "CLASSIFICATION_TYPE": "U", "NORAD_CAT_ID": 28702, "ELEMENT_SET_NO": 999, "REV_AT_EPOCH": 5002, "BSTAR": 0, "MEAN_MOTION_DOT": -1.74e-06, "MEAN_MOTION_DDOT": 0}, "tle": {"line1": "1 28702U 05022A   25338.55433493 -.00000174  00000+0  00000+0 0  9996", "line2": "2 28702   2.7977  81.3766 0002636 171.5466 291.5686  1.00272119 50028"}}, "geometry": {"type": "Point", "coordinates": [-152.7099518601676, 2.2469481889028216]}}, {"type": "Feature", "properties": {"norad_id": 29236, "name": "GALAXY 16 (G-16)", "group": "intelsat", "lat": -0.011384165975721413, "lon": -163.07233146838297, "alt_km": 35779.89483951755, "timestamp": "2025-12-05T14:45:14.980982+00:00", "meta": {"OBJECT_NAME": "GALAXY 16 (G-16)", "OBJECT_ID": "2006-023A", "EPOCH": "2025-12-04T09:49:53.556096", "MEAN_MOTION": 1.00271171, "ECCENTRICITY": 0.0002953, "INCLINATION": 0.0259, "RA_OF_ASC_NODE": 211.8761, "ARG_OF_PERICENTER": 44.3815, "MEAN_ANOMALY": 225.6909, "EPHEMERIS_TYPE": 0, "CLASSIFICATION_TYPE": "U", "NORAD_CAT_ID": 29236, "ELEMENT_SET_NO": 999, "REV_AT_EPOCH": 7102, "BSTAR": 0, "MEAN_MOTION_DOT": -1.12e-06, "MEAN_MOTION_DDOT": 0}, "tle": {"line1": "1 29236U 06023A   25338.40964764 -.00000112  00000+0  00000+0 0  9997", "line2": "2 29236   0.0259 211.8761 0002953  44.3815 225.6909  1.00271171 71023"}}, "geometry": {"type": "Point", "coordinates": [-163.07233146838297, -0.011384165975721413]}}, {"type": "Feature", "properties": {"norad_id": 29494, "name": "DIRECTV 9S", "group": "intelsat", "lat": 1.7693568534137654, "lon": -165.26055850905806, "alt_km": 35779.14362278603, "timestamp": "2025-12-05T14:45:14.980994+00:00", "meta": {"OBJECT_NAME": "DIRECTV 9S", "OBJECT_ID": "2006-043A", "EPOCH": "2025-12-04T13:14:44.871936", "MEAN_MOTION": 1.00270512, "ECCENTRICITY": 0.0003237, "INCLINATION": 1.9176, "RA_OF_ASC_NODE": 83.2962, "ARG_OF_PERICENTER": 170.3541, "MEAN_ANOMALY": 277.4541, "EPHEMERIS_TYPE": 0, "CLASSIFICATION_TYPE": "U", "NORAD_CAT_ID": 29494, "ELEMENT_SET_NO": 999, "REV_AT_EPOCH": 4943, "BSTAR": 0, "MEAN_MOTION_DOT": -9.9e-07, "MEAN_MOTION_DDOT": 0}, "tle": {"line1": "1 29494U 06043A   25338.55190824 -.00000099  00000+0  00000+0 0  9993", "line2": "2 29494   1.9176  83.2962 0003237 170.3541 277.4541  1.00270512 49438"}}, "geometry": {"type": "Point", "coordinates": [-165.26055850905806, 1.7693568534137654]}}, {"type": "Feature", "properties": {"norad_id": 31307, "name": "GALAXY 17 (G-17)", "group": "intelsat", "lat": 1.916751027845528, "lon": -149.04136933867554, "alt_km": 35763.76504353563, "timestamp": "2025-12-05T14:45:14.981005+00:00", "meta": {"OBJECT_NAME": "GALAXY 17 (G-17)", "OBJECT_ID": "2007-016B", "EPOCH": "2025-12-04T13:19:21.929952", "MEAN_MOTION": 1.00270292, "ECCENTRICITY": 0.0006117, "INCLINATION": 2.478, "RA_OF_ASC_NODE": 82.3782, "ARG_OF_PERICENTER": 157.9017, "MEAN_ANOMALY": 308.189, "EPHEMERIS_TYPE": 0, "CLASSIFICATION_TYPE": "U", "NORAD_CAT_ID": 31307, "ELEMENT_SET_NO": 999, "REV_AT_EPOCH": 6785, "BSTAR": 0, "MEAN_MOTION_DOT": -1.93e-06, "MEAN_MOTION_DDOT": 0}, "tle": {"line1": "1 31307U 07016B   25338.55511493 -.00000193  00000+0  00000+0 0  9994", "line2": "2 31307   2.4780  82.3782 0006117 157.9017 308.1890  1.00270292 67850"}}, "geometry": {"type": "Point", "coordinates": [-149.04136933867554, 1.916751027845528]}}, {"type": "Feature", "properties": {"norad_id": 31862, "name": "DIRECTV 10", "group": "intelsat", "lat": 0.001336249492324577, "lon": -166.81811165211025, "alt_km": 35784.04802415489, "timestamp": "2025-12-05T14:45:14.981022+00:00", "meta": {"OBJECT_NAME": "DIRECTV 10", "OBJECT_ID": "2007-032A", "EPOCH": "2025-12-04T13:14:14.921376", "MEAN_MOTION": 1.00273825, "ECCENTRICITY": 3.87e-05, "INCLINATION": 0.0007, "RA_OF_ASC_NODE": 238.2855, "ARG_OF_PERICENTER": 340.2831, "MEAN_ANOMALY": 310.8251, "EPHEMERIS_TYPE": 0, "CLASSIFICATION_TYPE": "U", "NORAD_CAT_ID": 31862, "ELEMENT_SET_NO": 999, "REV_AT_EPOCH": 4364, "BSTAR": 0, "MEAN_MOTION_DOT": -8.9e-07, "MEAN_MOTION_DDOT": 0}, "tle": {"line1": "1 31862U 07032A   25338.55156159 -.00000089  00000+0  00000+0 0  9996", "line2": "2 31862   0.0007 238.2855 0000387 340.2831 310.8251  1.00273825 43646"}}, "geometry": {"type": "Point", "coordinates": [-166.81811165211025, 0.001336249492324577]}}, {"type": "Feature", "properties": {"norad_id": 32253, "name": "INTELSAT 11 (IS-11)", "group": "intelsat", "lat": 2.8226579207203595, "lon": -167.01829451736336, "alt_km": 36107.09081921926, "timestamp": "2025-12-05T14:45:14.981035+00:00", "meta": {"OBJECT_NAME": "INTELSAT 11 (IS-11)", "OBJECT_ID": "2007-044B", "EPOCH": "2025-12-04T13:15:29.800800", "MEAN_MOTION": 0.99047143, "ECCENTRICITY": 0.0009295, "INCLINATION": 3.0574, "RA_OF_ASC_NODE": 81.0671, "ARG_OF_PERICENTER": 161.8583, "MEAN_ANOMALY": 291.3189, "EPHEMERIS_TYPE": 0, "CLASSIFICATION_TYPE": "U", "NORAD_CAT_ID": 32253, "ELEMENT_SET_NO": 999, "REV_AT_EPOCH": 6652, "BSTAR": 0, "MEAN_MOTION_DOT": 2.5e-07, "MEAN_MOTION_DDOT": 0}, "tle": {"line1": "1 32253U 07044B   25338.55242825  .00000025  00000+0  00000+0 0  9999", "line2": "2 32253   3.0574  81.0671 0009295 161.8583 291.3189  0.99047143 66525"}}, "geometry": {"type": "Point", "coordinates": [-167.01829451736336, 2.8226579207203595]}}, {"type": "Feature", "properties": {"norad_id": 32388, "name": "HORIZONS-2", "group": "intelsat", "lat": 1.3501544356693034, "lon": -137.83149222088164, "alt_km": 35770.40169295043, "timestamp": "2025-12-05T14:45:14.981046+00:00", "meta": {"OBJECT_NAME": "HORIZONS-2", "OBJECT_ID": "2007-063B", "EPOCH": "2025-12-04T13:22:29.131104", "MEAN_MOTION": 1.00271685, "ECCENTRICITY": 0.0005031, "INCLINATION": 2.0989, "RA_OF_ASC_NODE": 83.0494, "ARG_OF_PERICENTER": 182.0483, "MEAN_ANOMALY": 295.3707, "EPHEMERIS_TYPE": 0, "CLASSIFICATION_TYPE": "U", "NORAD_CAT_ID": 32388, "ELEMENT_SET_NO": 999, "REV_AT_EPOCH": 6586, "BSTAR": 0, "MEAN_MOTION_DOT": -2.4e-06, "MEAN_MOTION_DDOT": 0}, "tle": {"line1": "1 32388U 07063B   25338.55728161 -.00000240  00000+0  00000+0 0  9991", "line2": "2 32388   2.0989  83.0494 0005031 182.0483 295.3707  1.00271685 65865"}}, "geometry": {"type": "Point", "coordinates": [-137.83149222088164, 1.3501544356693034]}}, {"type": "Feature", "properties": {"norad_id": 32729, "name": "DIRECTV 11", "group": "intelsat", "lat": 0.0007482405222997775, "lon": -163.22906417282042, "alt_km": 35785.36168511771, "timestamp": "2025-12-05T14:45:14.981058+00:00", "meta": {"OBJECT_NAME": "DIRECTV 11", "OBJECT_ID": "2008-013A", "EPOCH": "2025-12-04T09:49:46.066080", "MEAN_MOTION": 1.00271822, "ECCENTRICITY": 2.82e-05, "INCLINATION": 0.0106, "RA_OF_ASC_NODE": 92.3257, "ARG_OF_PERICENTER": 156.2768, "MEAN_ANOMALY": 233.1284, "EPHEMERIS_TYPE": 0, "CLASSIFICATION_TYPE": "U", "NORAD_CAT_ID": 32729, "ELEMENT_SET_NO": 999, "REV_AT_EPOCH": 4364, "BSTAR": 0, "MEAN_MOTION_DOT": -1.11e-06, "MEAN_MOTION_DDOT": 0}, "tle": {"line1": "1 32729U 08013A   25338.40956095 -.00000111  00000+0  00000+0 0  9996", "line2": "2 32729   0.0106  92.3257 0000282 156.2768 233.1284  1.00271822 43640"}}, "geometry": {"type": "Point", "coordinates": [-163.22906417282042, 0.0007482405222997775]}}, {"type": "Feature", "properties": {"norad_id": 32951, "name": "GALAXY 18 (G-18)", "group": "intelsat", "lat": -0.003178074538006369, "lon": 172.9189939824337, "alt_km": 35784.81028868902, "timestamp": "2025-12-05T14:45:14.981070+00:00", "meta": {"OBJECT_NAME": "GALAXY 18 (G-18)", "OBJECT_ID": "2008-024A", "EPOCH": "2025-12-04T14:02:38.764032", "MEAN_MOTION": 1.00268646, "ECCENTRICITY": 0.000325, "INCLINATION": 0.0161, "RA_OF_ASC_NODE": 1.1901, "ARG_OF_PERICENTER": 253.0124, "MEAN_ANOMALY": 267.1148, "EPHEMERIS_TYPE": 0, "CLASSIFICATION_TYPE": "U", "NORAD_CAT_ID": 32951, "ELEMENT_SET_NO": 999, "REV_AT_EPOCH": 4390, "BSTAR": 0, "MEAN_MOTION_DOT": 4e-07, "MEAN_MOTION_DDOT": 0}, "tle": {"line1": "1 32951U 08024A   25338.58517088  .00000040  00000+0  00000+0 0  9999", "line2": "2 32951   0.0161   1.1901 0003250 253.0124 267.1148  1.00268646 43907"}}, "geometry": {"type": "Point", "coordinates": [172.9189939824337, -0.003178074538006369]}}]}